STARLINK-31511          
1 59462U 24068H   26068.31561203 -.00000402  00000+0 -50759-5 0  9997
2 59462  43.0023  36.7900 0001374 254.7480 105.3220 15.27576819108463
FLOCK 4G-11             
1 62629U 25009W   26068.45629261  .00012672  00000+0  47740-3 0  9990
2 62629  97.3964 150.6183 0001611 333.5407  26.5750 15.27220677 63680
